SatCatId,ObjectName,LaunchYear,OrbitalPeriod,LaunchMass,StatusCode,Inclination,Status,UcsData,OrbitClassEstimated,LaunchSiteCountry,Owner,UseType,Purpose,LaunchVehicleClass,TLE1,TLE2,MeanMotion,Eccentricity,OrbitClass
52145,MERIDIAN 10,2022,717.81,-1.0,+,62.65,Active,0,MEO,Russia,Russia/USSR,Unknown,Unknown,Unknown,1 52145U 22030A   24281.34407268  .00000208  00000+0  00000+0 0  9993,2 52145  62.6547 205.9569 6798471 273.7332  17.2508  2.00611525 18637,2.00611525,0.6798471,MEO
52150,TK-2,2022,96.13,90.0,+,97.85,Active,1,LEO,PRC,China,Government,Technology Development,Long March,1 52150U 22031A   24281.58841725  .00012402  00000+0  10510-2 0  9995,2 52150  97.8474 100.8820 0014716  79.2487 281.0391 14.98034049137804,14.98034049,0.0014716,LEO
52151,PUJIANG 2 (PJ-2),2022,96.47,2000.0,+,97.84,Active,1,LEO,PRC,China,Government,Earth Observation,Long March,1 52151U 22031B   24281.53593363  .00002895  00000+0  28530-3 0  9990,2 52151  97.8439  96.5425 0013482  92.3726 267.9037 14.92757498137599,14.92757498,0.0013482,LEO
52153,TIANPING 2A,2022,96.38,-1.0,+,97.67,Active,0,LEO,PRC,China,Unknown,Unknown,Unknown,1 52153U 22032A   24281.54591258  .00008542  00000+0  80231-3 0  9996,2 52153  97.6723 324.2895 0012895  85.7621 274.5073 14.94117563137504,14.94117563,0.0012895,LEO
52155,TIANPING 2B,2022,96.19,-1.0,+,97.68,Active,0,LEO,PRC,China,Unknown,Unknown,Unknown,1 52155U 22032C   24281.55510799  .00011386  00000+0  98922-3 0  9996,2 52155  97.6768 328.0104 0016952  98.9558 261.3584 14.97053284137708,14.97053284,0.0016952,LEO
52156,TIANPING 2C,2022,95.93,-1.0,+,97.67,Active,0,LEO,PRC,China,Unknown,Unknown,Unknown,1 52156U 22032D   24281.50608079  .00023762  00000+0  18557-2 0  9997,2 52156  97.6699 328.6276 0011785 103.8337 256.4199 15.01055635137826,15.01055635,0.0011785,LEO
52157,OMNI-L1,2022,97.29,20.0,+,97.89,Active,1,LEO,USA,USA,Commercial,Communications,Falcon,1 52157U 22033A   24280.76606483  .00012595  00000+0  16641-2 0  9997,2 52157  97.8887   0.8061 0006512 128.0272 232.1529 14.80117573135921,14.80117573,0.0006512,LEO
52158,GNOMES-3,2022,97.28,30.0,+,97.88,Active,1,LEO,USA,USA,Commercial,Earth Observation,Falcon,1 52158U 22033B   24281.47560488  .00013765  00000+0  18078-2 0  9997,2 52158  97.8811 357.4866 0012184 175.8517 184.2798 14.80314621135778,14.80314621,0.0012184,LEO
52159,ENMAP,2022,97.63,980.0,+,97.98,Active,1,LEO,USA,Germany,Government,Earth Observation,Falcon,1 52159U 22033C   24281.48961446  .00003376  00000+0  51016-3 0  9995,2 52159  97.9778   1.6074 0001698  84.1038 276.0364 14.74920571135600,14.74920571,0.0001698,LEO
52161,ARCSAT-1,2022,93.77,10.0,+,97.32,Active,1,LEO,USA,Norway,Military,Technology Development,Falcon,1 52161U 22033E   24281.18344827  .00031115  00000+0  89729-3 0  9997,2 52161  97.3161   0.0362 0005706 279.4725  80.5874 15.35638846140285,15.35638846,0.0005706,LEO
52162,LYNK TOWER 1,2022,93.49,80.0,+,97.32,Active,1,LEO,USA,USA,Commercial,Communications,Falcon,1 52162U 22033F   24281.18830635  .00048687  00000+0  12021-2 0  9997,2 52162  97.3153   1.3265 0005821 252.6590 107.4020 15.40340719140371,15.40340719,0.0005821,LEO
52165,HAWK-4B,2022,93.11,15.0,+,97.32,Active,1,LEO,USA,USA,Commercial,Surveillance,Falcon,1 52165U 22033J   24281.51736699  .00075132  00000+0  15001-2 0  9998,2 52165  97.3173   4.7582 0005544 248.7273 111.3385 15.46552270140620,15.4655227,0.0005544,LEO
52167,HAWK-4A,2022,93.11,15.0,+,97.31,Active,1,LEO,USA,USA,Commercial,Surveillance,Falcon,1 52167U 22033L   24281.51699990  .00065463  00000+0  13104-2 0  9990,2 52167  97.3117   4.1593 0005195 245.8460 114.2247 15.46520516140621,15.46520516,0.0005195,LEO
52168,NUSAT-23 (ANNIE MAUNDER),2022,90.81,42.0,+,97.31,Active,1,LEO,USA,Argentina,Commercial,Earth Observation,Falcon,1 52168U 22033M   24281.25216819  .00563537  00000+0  21843-2 0  9991,2 52168  97.3051  11.6302 0006067 241.6686 118.3973 15.85805150141088,15.8580515,0.0006067,LEO
52169,MP42,2022,90.41,-1.0,+,97.31,Active,0,LEO,USA,Lithuania,Unknown,Unknown,Unknown,1 52169U 22033N   24281.24092712  .00732076  22355-3  21367-2 0  9993,2 52169  97.3082  13.8022 0006219 247.4020 112.6597 15.92813042141201,15.92813042,0.0006219,LEO
52170,HAWK-4C,2022,93.11,15.0,+,97.32,Active,1,LEO,USA,USA,Commercial,Surveillance,Falcon,1 52170U 22033P   24281.51699583  .00069950  00000+0  13976-2 0  9994,2 52170  97.3172   4.7328 0006888 237.0307 123.0281 15.46545439140628,15.46545439,0.0006888,LEO
52171,NUSAT-25 (MARIA TELKES),2022,93.43,42.0,+,97.28,Active,1,LEO,USA,Argentina,Commercial,Earth Observation,Falcon,1 52171U 22033Q   24281.49865823  .00079279  00000+0  18880-2 0  9998,2 52171  97.2760 358.5826 0002250 256.7080 103.3916 15.41310194140549,15.41310194,0.000225,LEO
52174,BRO-7,2022,93.02,10.0,+,97.32,Active,1,LEO,USA,France,Commercial,Earth Observation,Falcon,1 52174U 22033T   24281.53960299  .00062274  00000+0  11788-2 0  9996,2 52174  97.3181   6.0547 0007552 228.2872 131.7734 15.48139394140718,15.48139394,0.0007552,LEO
52178,NUSAT-24 (KALPANA CHAWLA),2022,92.38,42.0,+,97.27,Active,1,LEO,USA,Argentina,Commercial,Earth Observation,Falcon,1 52178U 22033X   24281.55103630  .00154011  00000+0  19556-2 0  9992,2 52178  97.2689   2.6716 0005186 230.6756 129.4041 15.58879549140835,15.58879549,0.0005186,LEO
52184,NUSAT-26 (M SOMERVILLE),2022,94.08,42.0,+,97.3,Active,1,LEO,USA,Argentina,Commercial,Earth Observation,Falcon,1 52184U 22033AD  24281.51101831  .00051998  00000+0  17482-2 0  9992,2 52184  97.2975   0.2690 0012741 288.1680  71.8173 15.30561773 10068,15.30561773,0.0012741,LEO
52196,GLOBAL-18,2022,93.55,55.0,+,52.99,Active,1,LEO,New Zealand,USA,Commercial,Earth Observation,Electron,1 52196U 22034B   24281.43451290  .00061574  00000+0  15501-2 0  9995,2 52196  52.9892 300.3146 0011669  10.1194 350.0041 15.39291989141786,15.39291989,0.0011669,LEO
52197,GLOBAL-20,2022,92.64,55.0,+,52.99,Active,1,LEO,New Zealand,USA,Commercial,Earth Observation,Electron,1 52197U 22034C   24281.50812369  .00048848  00000+0  73356-3 0  9994,2 52197  52.9872 279.1857 0011472  47.6368 312.5611 15.54354323142086,15.54354323,0.0011472,LEO
52200,GAOFEN-3 03,2022,99.85,2500.0,+,98.41,Active,1,LEO,PRC,China,Government,Earth Observation,Long March,1 52200U 22035A   24281.55719622  .00000503  00000+0  16584-3 0  9999,2 52200  98.4145 287.9273 0000830  92.0482 268.0803 14.42213586131824,14.42213586,8.3e-05,LEO
52202,COSMOS 2554,2022,103.1,5000.0,+,67.15,Active,1,LEO,Russia,Russia/USSR,Military,Earth Observation,Soyuz,1 52202U 22036A   24281.56646936  .00000055  00000+0  93959-4 0  9994,2 52202  67.1469 289.8520 0007429 266.0905  93.9331 13.96675646127708,13.96675646,0.0007429,LEO
52255,ZHONGXING-6D,2022,1436.07,5250.0,+,0.07,Active,1,GSO,PRC,China,Commercial/Government,Communications,Long March,1 52255U 22038A   24280.60881640 -.00000343  00000+0  00000+0 0  9992,2 52255   0.0680 260.1685 0002400 335.7670 124.0748  1.00273722  9223,1.00273722,0.00024,GEO
52257,DAQI 1,2022,98.77,2600.0,+,98.22,Active,1,LEO,PRC,China,Government,Earth Observation,Long March,1 52257U 22039A   24281.57279695  .00002666  00000+0  59186-3 0  9995,2 52257  98.2169 217.7800 0002091 352.7310   7.3858 14.57868360131965,14.5786836,0.0002091,LEO
52261,STARLINK-3810,2022,95.44,260.0,+,53.22,Active,1,LEO,USA,USA,Commercial,Communications,Falcon,1 52261U 22041A   24281.38433115  .00000316  00000+0  37943-4 0  9999,2 52261  53.2158 275.8932 0001690  97.0654 263.0530 15.08834671136119,15.08834671,0.000169,LEO
52262,STARLINK-3761,2022,95.44,260.0,+,53.22,Active,1,LEO,USA,USA,Commercial,Communications,Falcon,1 52262U 22041B   24281.38335801  .00001253  00000+0  96800-4 0  9991,2 52262  53.2167 275.8382 0001649  89.0378 271.0803 15.08846183136110,15.08846183,0.0001649,LEO
52263,STARLINK-3786,2022,95.44,260.0,+,53.22,Active,1,LEO,USA,USA,Commercial,Communications,Falcon,1 52263U 22041C   24281.25457027  .00003487  00000+0  23706-3 0  9998,2 52263  53.2160 276.4642 0001578  82.7628 277.3544 15.08841312136096,15.08841312,0.0001578,LEO
52264,STARLINK-3795,2022,95.44,260.0,+,53.22,Active,1,LEO,USA,USA,Commercial,Communications,Falcon,1 52264U 22041D   24281.24720906  .00002059  00000+0  14744-3 0  9993,2 52264  53.2172 276.4989 0001560  87.0827 273.0344 15.08836775136092,15.08836775,0.000156,LEO
52265,STARLINK-3740,2022,95.44,260.0,+,53.22,Active,1,LEO,USA,USA,Commercial,Communications,Falcon,1 52265U 22041E   24281.37600998  .00004212  00000+0  28258-3 0  9994,2 52265  53.2153 275.9224 0001532  92.4255 267.6913 15.08837946136117,15.08837946,0.0001532,LEO
52266,STARLINK-3739,2022,95.44,260.0,+,53.22,Active,1,LEO,USA,USA,Commercial,Communications,Falcon,1 52266U 22041F   24281.30608676  .00001393  00000+0  10561-3 0  9994,2 52266  53.2166 276.2364 0001418  92.4478 267.6676 15.08841706137331,15.08841706,0.0001418,LEO
52267,STARLINK-3748,2022,95.43,260.0,+,53.22,Active,1,LEO,USA,USA,Commercial,Communications,Falcon,1 52267U 22041G   24281.58334491 -.00078841  00000+0 -49865-2 0  9998,2 52267  53.2152 274.9902 0001487  81.2632   5.6954 15.08868043  5802,15.08868043,0.0001487,LEO
52268,STARLINK-3746,2022,95.44,260.0,+,53.22,Active,1,LEO,USA,USA,Commercial,Communications,Falcon,1 52268U 22041H   24281.28400161  .00002265  00000+0  16034-3 0  9992,2 52268  53.2172 276.2577 0001521 101.9114 258.2048 15.08836775136107,15.08836775,0.0001521,LEO
52269,STARLINK-3791,2022,95.44,260.0,+,53.22,Active,1,LEO,USA,USA,Commercial,Communications,Falcon,1 52269U 22041J   24281.29871791  .00003422  00000+0  23289-3 0  9991,2 52269  53.2169 276.2683 0001484  88.3837 271.7326 15.08851093136109,15.08851093,0.0001484,LEO
52270,STARLINK-3804,2022,95.44,260.0,+,53.22,Active,1,LEO,USA,USA,Commercial,Communications,Falcon,1 52270U 22041K   24281.29137058  .00000895  00000+0  74318-4 0  9995,2 52270  53.2169 276.3310 0001449  85.9487 274.1671 15.08839262136108,15.08839262,0.0001449,LEO
